[{"id":1,"name":"Ode MacNeachtain","ownersName":"Sashenka Rentoul","address":"730 Kingsford Place","areaCode":null,"rent":78003},
    {"id":2,"name":"Fred Cooney","ownersName":"Shalna Saw","address":"3 Schiller Center","areaCode":"314 32","rent":86728},
    {"id":3,"name":"Bertrand Kareman","ownersName":"Caldwell Forlong","address":"96494 Corben Road","areaCode":null,"rent":13335},
    {"id":4,"name":"Brig Cantero","ownersName":"Geno Postles","address":"33 Karstens Court","areaCode":"27300-000","rent":28054},
    {"id":5,"name":"Carlen Lodder","ownersName":"Alyse Scotchbourouge","address":"23 Cordelia Lane","areaCode":null,"rent":19868},
    {"id":6,"name":"Gillie Channing","ownersName":"Robenia Mallaby","address":"82886 Corben Street","areaCode":null,"rent":50724},
    {"id":7,"name":"Damiano Dooler","ownersName":"Debbie Cater","address":"617 Farwell Terrace","areaCode":"121 32","rent":50640},
    {"id":8,"name":"Ferdy Gatheral","ownersName":"Glynn Conklin","address":"0295 Washington Court","areaCode":"250208","rent":43720},
    {"id":9,"name":"Julita Slavin","ownersName":"Rich Sandwich","address":"1690 Sauthoff Hill","areaCode":"6009","rent":6580},
    {"id":10,"name":"Rita Breslin","ownersName":"Shawna MacKibbon","address":"08899 Michigan Place","areaCode":"3181","rent":14414},
    {"id":11,"name":"Gabriello Mudge","ownersName":"Josepha Figgen","address":"3 Loomis Place","areaCode":null,"rent":65308},
    {"id":12,"name":"Devora Kingham","ownersName":"Imogen Unstead","address":"3 Hanson Parkway","areaCode":null,"rent":61855},
    {"id":13,"name":"Hadlee Cota","ownersName":"Franky Nield","address":"15428 Eastwood Avenue","areaCode":"42604 CEDEX","rent":6749},
    {"id":14,"name":"Barde Estick","ownersName":"Marie Gietz","address":"36 Farragut Place","areaCode":"1950","rent":73075},
    {"id":15,"name":"Dawn Caulfield","ownersName":"Almeda Ruskin","address":"4 Florence Parkway","areaCode":"33-180","rent":59230},
    {"id":16,"name":"Quill Coxwell","ownersName":"Debra Memmory","address":"49608 Schlimgen Parkway","areaCode":null,"rent":71003},
    {"id":17,"name":"Veronique Bockh","ownersName":"Tamiko Foord","address":"3615 Heffernan Way","areaCode":null,"rent":83789},
    {"id":18,"name":"Aldous Spleving","ownersName":"Izabel Alderson","address":"7916 Pleasure Court","areaCode":null,"rent":92582},
    {"id":19,"name":"Lyndy Menis","ownersName":"Leonhard Fellon","address":"30304 Bashford Road","areaCode":null,"rent":8470},
    {"id":20,"name":"Mick Airds","ownersName":"Udell Pote","address":"6309 Shoshone Pass","areaCode":null,"rent":61592}]
    